[
  {
    "COMMENT": "GENERATED VIA SPACETRACK.ORG API",
    "ORIGINATOR": "18 SPCS",
    "NORAD_CAT_ID": "41240",
    "OBJECT_NAME": "JASON 3",
    "OBJECT_TYPE": "PAYLOAD",
    "CLASSIFICATION_TYPE": "U",
    "INTLDES": "16002A",
    "EPOCH": "2023-04-19 14:41:12",
    "EPOCH_MICROSECONDS": "97248",
    "MEAN_MOTION": "12.80929131",
    "ECCENTRICITY": "0.0007761",
    "INCLINATION": "66.0446",
    "RA_OF_ASC_NODE": "13.177",
    "ARG_OF_PERICENTER": "273.8994",
    "MEAN_ANOMALY": "86.1134",
    "EPHEMERIS_TYPE": "0",
    "ELEMENT_SET_NO": "999",
    "REV_AT_EPOCH": "33912",
    "BSTAR": "0.00027517",
    "MEAN_MOTION_DOT": "0.00000002",
    "MEAN_MOTION_DDOT": "0",
    "FILE": "3890383",
    "TLE_LINE0": "0 JASON 3",
    "TLE_LINE1": "1 41240U 16002A   23109.61194557  .00000002  00000-0  27517-3 0  9990",
    "TLE_LINE2": "2 41240  66.0446  13.1770 0007761 273.8994  86.1134 12.80929131339128",
    "OBJECT_ID": "2016-002A",
    "OBJECT_NUMBER": "41240",
    "SEMIMAJOR_AXIS": "7715.874",
    "PERIOD": "112.418",
    "APOGEE": "1343.727",
    "PERIGEE": "1331.750",
    "DECAYED": "0"
  },
  {
    "COMMENT": "GENERATED VIA SPACETRACK.ORG API",
    "ORIGINATOR": "18 SPCS",
    "NORAD_CAT_ID": "41240",
    "OBJECT_NAME": "JASON 3",
    "OBJECT_TYPE": "PAYLOAD",
    "CLASSIFICATION_TYPE": "U",
    "INTLDES": "16002A",
    "EPOCH": "2023-04-19 22:10:55",
    "EPOCH_MICROSECONDS": "161120",
    "MEAN_MOTION": "12.80929162",
    "ECCENTRICITY": "0.0007756",
    "INCLINATION": "66.0446",
    "RA_OF_ASC_NODE": "12.5283",
    "ARG_OF_PERICENTER": "273.873",
    "MEAN_ANOMALY": "86.1399",
    "EPHEMERIS_TYPE": "0",
    "ELEMENT_SET_NO": "999",
    "REV_AT_EPOCH": "33916",
    "BSTAR": "0.00027016",
    "MEAN_MOTION_DOT": "0.00000001",
    "MEAN_MOTION_DDOT": "0",
    "FILE": "3890520",
    "TLE_LINE0": "0 JASON 3",
    "TLE_LINE1": "1 41240U 16002A   23109.92424955  .00000001  00000-0  27016-3 0  9995",
    "TLE_LINE2": "2 41240  66.0446  12.5283 0007756 273.8730  86.1399 12.80929162339163",
    "OBJECT_ID": "2016-002A",
    "OBJECT_NUMBER": "41240",
    "SEMIMAJOR_AXIS": "7715.874",
    "PERIOD": "112.418",
    "APOGEE": "1343.723",
    "PERIGEE": "1331.754",
    "DECAYED": "0"
  },
  {
    "COMMENT": "GENERATED VIA SPACETRACK.ORG API",
    "ORIGINATOR": "18 SPCS",
    "NORAD_CAT_ID": "41240",
    "OBJECT_NAME": "JASON 3",
    "OBJECT_TYPE": "PAYLOAD",
    "CLASSIFICATION_TYPE": "U",
    "INTLDES": "16002A",
    "EPOCH": "2023-04-20 13:10:21",
    "EPOCH_MICROSECONDS": "290592",
    "MEAN_MOTION": "12.80929216",
    "ECCENTRICITY": "0.0007749",
    "INCLINATION": "66.0446",
    "RA_OF_ASC_NODE": "11.2311",
    "ARG_OF_PERICENTER": "273.8842",
    "MEAN_ANOMALY": "86.1287",
    "EPHEMERIS_TYPE": "0",
    "ELEMENT_SET_NO": "999",
    "REV_AT_EPOCH": "33924",
    "BSTAR": "0.000258",
    "MEAN_MOTION_DOT": "-0.00000002",
    "MEAN_MOTION_DDOT": "0",
    "FILE": "3890827",
    "TLE_LINE0": "0 JASON 3",
    "TLE_LINE1": "1 41240U 16002A   23110.54885753 -.00000002  00000-0  25800-3 0  9993",
    "TLE_LINE2": "2 41240  66.0446  11.2311 0007749 273.8842  86.1287 12.80929216339242",
    "OBJECT_ID": "2016-002A",
    "OBJECT_NUMBER": "41240",
    "SEMIMAJOR_AXIS": "7715.873",
    "PERIOD": "112.418",
    "APOGEE": "1343.717",
    "PERIGEE": "1331.759",
    "DECAYED": "0"
  },
  {
    "COMMENT": "GENERATED VIA SPACETRACK.ORG API",
    "ORIGINATOR": "18 SPCS",
    "NORAD_CAT_ID": "41240",
    "OBJECT_NAME": "JASON 3",
    "OBJECT_TYPE": "PAYLOAD",
    "CLASSIFICATION_TYPE": "U",
    "INTLDES": "16002A",
    "EPOCH": "2023-04-20 16:55:12",
    "EPOCH_MICROSECONDS": "822528",
    "MEAN_MOTION": "12.80929221",
    "ECCENTRICITY": "0.0007745",
    "INCLINATION": "66.0446",
    "RA_OF_ASC_NODE": "10.9068",
    "ARG_OF_PERICENTER": "273.8579",
    "MEAN_ANOMALY": "86.155",
    "EPHEMERIS_TYPE": "0",
    "ELEMENT_SET_NO": "999",
    "REV_AT_EPOCH": "33940",
    "BSTAR": "0.00023409",
    "MEAN_MOTION_DOT": "-0.00000007",
    "MEAN_MOTION_DDOT": "0",
    "FILE": "3890911",
    "TLE_LINE0": "0 JASON 3",
    "TLE_LINE1": "1 41240U 16002A   23110.70500952 -.00000007  00000-0  23409-3 0  9994",
    "TLE_LINE2": "2 41240  66.0446  10.9068 0007745 273.8579  86.1550 12.80929221339407",
    "OBJECT_ID": "2016-002A",
    "OBJECT_NUMBER": "41240",
    "SEMIMAJOR_AXIS": "7715.873",
    "PERIOD": "112.418",
    "APOGEE": "1343.714",
    "PERIGEE": "1331.762",
    "DECAYED": "0"
  },
  {
    "COMMENT": "GENERATED VIA SPACETRACK.ORG API",
    "ORIGINATOR": "18 SPCS",
    "NORAD_CAT_ID": "41240",
    "OBJECT_NAME": "JASON 3",
    "OBJECT_TYPE": "PAYLOAD",
    "CLASSIFICATION_TYPE": "U",
    "INTLDES": "16002A",
    "EPOCH": "2023-04-20 20:40:04",
    "EPOCH_MICROSECONDS": "353600",
    "MEAN_MOTION": "12.80929217",
    "ECCENTRICITY": "0.0007742",
    "INCLINATION": "66.0446",
    "RA_OF_ASC_NODE": "10.5825",
    "ARG_OF_PERICENTER": "273.845",
    "MEAN_ANOMALY": "86.168",
    "EPHEMERIS_TYPE": "0",
    "ELEMENT_SET_NO": "999",
    "REV_AT_EPOCH": "33928",
    "BSTAR": "0.00022445",
    "MEAN_MOTION_DOT": "-0.00000009",
    "MEAN_MOTION_DDOT": "0",
    "FILE": "3891109",
    "TLE_LINE0": "0 JASON 3",
    "TLE_LINE1": "1 41240U 16002A   23110.86116150 -.00000009  00000-0  22445-3 0  9995",
    "TLE_LINE2": "2 41240  66.0446  10.5825 0007742 273.8450  86.1680 12.80929217339284",
    "OBJECT_ID": "2016-002A",
    "OBJECT_NUMBER": "41240",
    "SEMIMAJOR_AXIS": "7715.873",
    "PERIOD": "112.418",
    "APOGEE": "1343.712",
    "PERIGEE": "1331.765",
    "DECAYED": "0"
  },
  {
    "COMMENT": "GENERATED VIA SPACETRACK.ORG API",
    "ORIGINATOR": "18 SPCS",
    "NORAD_CAT_ID": "41240",
    "OBJECT_NAME": "JASON 3",
    "OBJECT_TYPE": "PAYLOAD",
    "CLASSIFICATION_TYPE": "U",
    "INTLDES": "16002A",
    "EPOCH": "2023-04-21 09:47:04",
    "EPOCH_MICROSECONDS": "712352",
    "MEAN_MOTION": "12.80929282",
    "ECCENTRICITY": "0.0007739",
    "INCLINATION": "66.0445",
    "RA_OF_ASC_NODE": "9.4475",
    "ARG_OF_PERICENTER": "273.8591",
    "MEAN_ANOMALY": "86.154",
    "EPHEMERIS_TYPE": "0",
    "ELEMENT_SET_NO": "999",
    "REV_AT_EPOCH": "33935",
    "BSTAR": "0.00024719",
    "MEAN_MOTION_DOT": "-0.00000004",
    "MEAN_MOTION_DDOT": "0",
    "FILE": "3891529",
    "TLE_LINE0": "0 JASON 3",
    "TLE_LINE1": "1 41240U 16002A   23111.40769343 -.00000004  00000-0  24719-3 0  9995",
    "TLE_LINE2": "2 41240  66.0445   9.4475 0007739 273.8591  86.1540 12.80929282339358",
    "OBJECT_ID": "2016-002A",
    "OBJECT_NUMBER": "41240",
    "SEMIMAJOR_AXIS": "7715.873",
    "PERIOD": "112.418",
    "APOGEE": "1343.709",
    "PERIGEE": "1331.767",
    "DECAYED": "0"
  },
  {
    "COMMENT": "GENERATED VIA SPACETRACK.ORG API",
    "ORIGINATOR": "18 SPCS",
    "NORAD_CAT_ID": "41240",
    "OBJECT_NAME": "JASON 3",
    "OBJECT_TYPE": "PAYLOAD",
    "CLASSIFICATION_TYPE": "U",
    "INTLDES": "16002A",
    "EPOCH": "2023-04-21 22:54:05",
    "EPOCH_MICROSECONDS": "68512",
    "MEAN_MOTION": "12.80929334",
    "ECCENTRICITY": "0.0007736",
    "INCLINATION": "66.0445",
    "RA_OF_ASC_NODE": "8.3125",
    "ARG_OF_PERICENTER": "273.8059",
    "MEAN_ANOMALY": "86.2071",
    "EPHEMERIS_TYPE": "0",
    "ELEMENT_SET_NO": "999",
    "REV_AT_EPOCH": "33942",
    "BSTAR": "0.00023109",
    "MEAN_MOTION_DOT": "-0.00000008",
    "MEAN_MOTION_DDOT": "0",
    "FILE": "3891716",
    "TLE_LINE0": "0 JASON 3",
    "TLE_LINE1": "1 41240U 16002A   23111.95422533 -.00000008  00000-0  23109-3 0  9998",
    "TLE_LINE2": "2 41240  66.0445   8.3125 0007736 273.8059  86.2071 12.80929334339420",
    "OBJECT_ID": "2016-002A",
    "OBJECT_NUMBER": "41240",
    "SEMIMAJOR_AXIS": "7715.873",
    "PERIOD": "112.418",
    "APOGEE": "1343.707",
    "PERIGEE": "1331.769",
    "DECAYED": "0"
  },
  {
    "COMMENT": "GENERATED VIA SPACETRACK.ORG API",
    "ORIGINATOR": "18 SPCS",
    "NORAD_CAT_ID": "41240",
    "OBJECT_NAME": "JASON 3",
    "OBJECT_TYPE": "PAYLOAD",
    "CLASSIFICATION_TYPE": "U",
    "INTLDES": "16002A",
    "EPOCH": "2023-04-22 12:01:05",
    "EPOCH_MICROSECONDS": "423808",
    "MEAN_MOTION": "12.80929424",
    "ECCENTRICITY": "0.0007726",
    "INCLINATION": "66.0445",
    "RA_OF_ASC_NODE": "7.1774",
    "ARG_OF_PERICENTER": "273.8098",
    "MEAN_ANOMALY": "86.2034",
    "EPHEMERIS_TYPE": "0",
    "ELEMENT_SET_NO": "999",
    "REV_AT_EPOCH": "33949",
    "BSTAR": "0.00027324",
    "MEAN_MOTION_DOT": "0.00000002",
    "MEAN_MOTION_DDOT": "0",
    "FILE": "3892071",
    "TLE_LINE0": "0 JASON 3",
    "TLE_LINE1": "1 41240U 16002A   23112.50075722  .00000002  00000-0  27324-3 0  9990",
    "TLE_LINE2": "2 41240  66.0445   7.1774 0007726 273.8098  86.2034 12.80929424339495",
    "OBJECT_ID": "2016-002A",
    "OBJECT_NUMBER": "41240",
    "SEMIMAJOR_AXIS": "7715.872",
    "PERIOD": "112.418",
    "APOGEE": "1343.699",
    "PERIGEE": "1331.776",
    "DECAYED": "0"
  },
  {
    "COMMENT": "GENERATED VIA SPACETRACK.ORG API",
    "ORIGINATOR": "18 SPCS",
    "NORAD_CAT_ID": "41240",
    "OBJECT_NAME": "JASON 3",
    "OBJECT_TYPE": "PAYLOAD",
    "CLASSIFICATION_TYPE": "U",
    "INTLDES": "16002A",
    "EPOCH": "2023-04-22 21:23:14",
    "EPOCH_MICROSECONDS": "246304",
    "MEAN_MOTION": "12.80929449",
    "ECCENTRICITY": "0.0007721",
    "INCLINATION": "66.0445",
    "RA_OF_ASC_NODE": "6.3667",
    "ARG_OF_PERICENTER": "273.7659",
    "MEAN_ANOMALY": "86.2473",
    "EPHEMERIS_TYPE": "0",
    "ELEMENT_SET_NO": "999",
    "REV_AT_EPOCH": "33954",
    "BSTAR": "0.00025116",
    "MEAN_MOTION_DOT": "-0.00000003",
    "MEAN_MOTION_DDOT": "0",
    "FILE": "3892285",
    "TLE_LINE0": "0 JASON 3",
    "TLE_LINE1": "1 41240U 16002A   23112.89113711 -.00000003  00000-0  25116-3 0  9992",
    "TLE_LINE2": "2 41240  66.0445   6.3667 0007721 273.7659  86.2473 12.80929449339544",
    "OBJECT_ID": "2016-002A",
    "OBJECT_NUMBER": "41240",
    "SEMIMAJOR_AXIS": "7715.872",
    "PERIOD": "112.418",
    "APOGEE": "1343.695",
    "PERIGEE": "1331.780",
    "DECAYED": "0"
  }
]